[{"OBJECT_NAME":"STARLINK-32827","OBJECT_ID":"2025-034Q","EPOCH":"2026-03-09T20:09:30.396960","MEAN_MOTION":15.30196539,"ECCENTRICITY":8.076e-5,"INCLINATION":53.1572,"RA_OF_ASC_NODE":270.6511,"ARG_OF_PERICENTER":87.7595,"MEAN_ANOMALY":272.3499,"EPHEMERIS_TYPE":0,"CLASSIFICATION_TYPE":"U","NORAD_CAT_ID":63043,"ELEMENT_SET_NO":999,"REV_AT_EPOCH":5892,"BSTAR":0.00065380866,"MEAN_MOTION_DOT":0.00019052,"MEAN_MOTION_DDOT":0},{"OBJECT_NAME":"ARIANE 40 R\/B","OBJECT_ID":"1999-064C","EPOCH":"2026-03-09T18:24:37.025280","MEAN_MOTION":15.31364882,"ECCENTRICITY":0.00050095,"INCLINATION":98.1631,"RA_OF_ASC_NODE":150.8872,"ARG_OF_PERICENTER":91.4057,"MEAN_ANOMALY":268.7755,"EPHEMERIS_TYPE":0,"CLASSIFICATION_TYPE":"U","NORAD_CAT_ID":25979,"ELEMENT_SET_NO":999,"REV_AT_EPOCH":42869,"BSTAR":0.00066758353,"MEAN_MOTION_DOT":0.00020173,"MEAN_MOTION_DDOT":0}]
